[{"OBJECT_NAME":"SHIYAN-30 01","OBJECT_ID":"2025-222A","EPOCH":"2026-03-09T22:25:49.198944","MEAN_MOTION":14.93180254,"ECCENTRICITY":0.00055411,"INCLINATION":34.9876,"RA_OF_ASC_NODE":137.1616,"ARG_OF_PERICENTER":247.7523,"MEAN_ANOMALY":112.2594,"EPHEMERIS_TYPE":0,"CLASSIFICATION_TYPE":"U","NORAD_CAT_ID":65851,"ELEMENT_SET_NO":999,"REV_AT_EPOCH":2420,"BSTAR":0.00031890213,"MEAN_MOTION_DOT":3.369e-5,"MEAN_MOTION_DDOT":0},{"OBJECT_NAME":"SL-14 R\/B","OBJECT_ID":"1986-006B","EPOCH":"2026-03-09T22:10:50.144736","MEAN_MOTION":14.86815194,"ECCENTRICITY":0.00750516,"INCLINATION":82.5234,"RA_OF_ASC_NODE":259.5165,"ARG_OF_PERICENTER":271.9927,"MEAN_ANOMALY":87.2696,"EPHEMERIS_TYPE":0,"CLASSIFICATION_TYPE":"U","NORAD_CAT_ID":16496,"ELEMENT_SET_NO":999,"REV_AT_EPOCH":14924,"BSTAR":8.3491519e-5,"MEAN_MOTION_DOT":8.08e-6,"MEAN_MOTION_DDOT":0}]
